{"type": "FeatureCollection", "features": [ {"type": "Feature", "properties": {"norad_id": 30714, "name": "FENGYUN 1C DEB", "group": "fengyun-1c-debris", "lat": 45.08153597309383, "lon": -144.37861404898413, "alt_km": 926.858583996448, "timestamp": "2025-12-03T20:47:58.502301+00:00", "meta": {"OBJECT_NAME": "FENGYUN 1C DEB", "OBJECT_ID": "1999-025ARY", "EPOCH": "2025-12-03T09:56:42.463104", "MEAN_MOTION": 14.03264944, "ECCENTRICITY": 0.0066916, "INCLINATION": 98.8387, "RA_OF_ASC_NODE": 26.2049, "ARG_OF_PERICENTER": 308.9389, "MEAN_ANOMALY": 61.8054, "EPHEMERIS_TYPE": 0, "CLASSIFICATION_TYPE": "U", "NORAD_CAT_ID": 30714, "ELEMENT_SET_NO": 999, "REV_AT_EPOCH": 95862, "BSTAR": 0.00097725, "MEAN_MOTION_DOT": 1.512e-05, "MEAN_MOTION_DDOT": 0}, "tle": {"line1": "1 30714U 99025ARY 25337.41438036  .00001512  00000+0  97725-3 0  9990", "line2": "2 30714  98.8387  26.2049 0066916 308.9389  61.8054 14.03264944958622"}}, "geometry": {"type": "Point", "coordinates": [-144.37861404898413, 45.08153597309383]}}, {"type": "Feature", "properties": {"norad_id": 30715, "name": "FENGYUN 1C DEB", "group": "fengyun-1c-debris", "lat": -4.78785102485028, "lon": 47.739837710700925, "alt_km": 893.9542064556999, "timestamp": "2025-12-03T20:47:58.502311+00:00", "meta": {"OBJECT_NAME": "FENGYUN 1C DEB", "OBJECT_ID": "1999-025ARZ", "EPOCH": "2025-12-03T03:50:49.407648", "MEAN_MOTION": 14.14580783, "ECCENTRICITY": 0.00678473, "INCLINATION": 98.978, "RA_OF_ASC_NODE": 46.2711, "ARG_OF_PERICENTER": 194.6517, "MEAN_ANOMALY": 165.269, "EPHEMERIS_TYPE": 0, "CLASSIFICATION_TYPE": "U", "NORAD_CAT_ID": 30715, "ELEMENT_SET_NO": 999, "REV_AT_EPOCH": 96046, "BSTAR": 0.0024796294, "MEAN_MOTION_DOT": 4.826e-05, "MEAN_MOTION_DDOT": 0}, "tle": {"line1": "1 30715U 99025ARZ 25337.16029407  .00004826  00000+0  24796-2 0  9999", "line2": "2 30715  98.9780  46.2711 0067847 194.6517 165.2690 14.14580783960460"}}, "geometry": {"type": "Point", "coordinates": [47.739837710700925, -4.78785102485028]}}, {"type": "Feature", "properties": {"norad_id": 30716, "name": "FENGYUN 1C DEB", "group": "fengyun-1c-debris", "lat": -78.87246767209892, "lon": -147.40489351274945, "alt_km": 654.8638208550665, "timestamp": "2025-12-03T20:47:58.502321+00:00", "meta": {"OBJECT_NAME": "FENGYUN 1C DEB", "OBJECT_ID": "1999-025ASA", "EPOCH": "2025-12-03T11:42:16.128288", "MEAN_MOTION": 14.78458134, "ECCENTRICITY": 0.0020081, "INCLINATION": 98.8721, "RA_OF_ASC_NODE": 159.603, "ARG_OF_PERICENTER": 115.1041, "MEAN_ANOMALY": 305.7423, "EPHEMERIS_TYPE": 0, "CLASSIFICATION_TYPE": "U", "NORAD_CAT_ID": 30716, "ELEMENT_SET_NO": 999, "REV_AT_EPOCH": 97687, "BSTAR": 0.0055106, "MEAN_MOTION_DOT": 0.00040496, "MEAN_MOTION_DDOT": 0}, "tle": {"line1": "1 30716U 99025ASA 25337.48768667  .00040496  00000+0  55106-2 0  9995", "line2": "2 30716  98.8721 159.6030 0020081 115.1041 305.7423 14.78458134976878"}}, "geometry": {"type": "Point", "coordinates": [-147.40489351274945, -78.87246767209892]}}, {"type": "Feature", "properties": {"norad_id": 30717, "name": "FENGYUN 1C DEB", "group": "fengyun-1c-debris", "lat": 1.1577064494129317, "lon": -131.3708582433479, "alt_km": 835.0486257276843, "timestamp": "2025-12-03T20:47:58.502331+00:00", "meta": {"OBJECT_NAME": "FENGYUN 1C DEB", "OBJECT_ID": "1999-025ASB", "EPOCH": "2025-11-30T02:21:23.039712", "MEAN_MOTION": 14.20428729, "ECCENTRICITY": 0.00475668, "INCLINATION": 99.0182, "RA_OF_ASC_NODE": 44.6037, "ARG_OF_PERICENTER": 294.0563, "MEAN_ANOMALY": 65.5639, "EPHEMERIS_TYPE": 0, "CLASSIFICATION_TYPE": "U", "NORAD_CAT_ID": 30717, "ELEMENT_SET_NO": 999, "REV_AT_EPOCH": 96357, "BSTAR": 0.0015014558, "MEAN_MOTION_DOT": 3.211e-05, "MEAN_MOTION_DDOT": 0}, "tle": {"line1": "1 30717U 99025ASB 25334.09818333  .00003211  00000+0  15015-2 0  9995", "line2": "2 30717  99.0182  44.6037 0047566 294.0563  65.5639 14.20428729963573"}}, "geometry": {"type": "Point", "coordinates": [-131.3708582433479, 1.1577064494129317]}}, {"type": "Feature", "properties": {"norad_id": 30718, "name": "FENGYUN 1C DEB", "group": "fengyun-1c-debris", "lat": 51.108359889979155, "lon": -110.6469101315465, "alt_km": 781.2978349623827, "timestamp": "2025-12-03T20:47:58.502341+00:00", "meta": {"OBJECT_NAME": "FENGYUN 1C DEB", "OBJECT_ID": "1999-025ASC", "EPOCH": "2025-12-02T22:16:45.271200", "MEAN_MOTION": 14.24222084, "ECCENTRICITY": 0.00577394, "INCLINATION": 98.8917, "RA_OF_ASC_NODE": 57.2136, "ARG_OF_PERICENTER": 183.866, "MEAN_ANOMALY": 176.208, "EPHEMERIS_TYPE": 0, "CLASSIFICATION_TYPE": "U", "NORAD_CAT_ID": 30718, "ELEMENT_SET_NO": 999, "REV_AT_EPOCH": 96634, "BSTAR": 0.0023737644, "MEAN_MOTION_DOT": 5.527e-05, "MEAN_MOTION_DDOT": 0}, "tle": {"line1": "1 30718U 99025ASC 25336.92830175  .00005527  00000+0  23738-2 0  9991", "line2": "2 30718  98.8917  57.2136 0057739 183.8660 176.2080 14.24222084966341"}}, "geometry": {"type": "Point", "coordinates": [-110.6469101315465, 51.108359889979155]}}, {"type": "Feature", "properties": {"norad_id": 30719, "name": "FENGYUN 1C DEB", "group": "fengyun-1c-debris", "lat": 72.13665108703768, "lon": -31.941429546921096, "alt_km": 693.262547068266, "timestamp": "2025-12-03T20:47:58.502352+00:00", "meta": {"OBJECT_NAME": "FENGYUN 1C DEB", "OBJECT_ID": "1999-025ASD", "EPOCH": "2025-12-02T21:16:08.400576", "MEAN_MOTION": 14.58676315, "ECCENTRICITY": 0.00118384, "INCLINATION": 98.8885, "RA_OF_ASC_NODE": 117.9603, "ARG_OF_PERICENTER": 219.0839, "MEAN_ANOMALY": 140.9504, "EPHEMERIS_TYPE": 0, "CLASSIFICATION_TYPE": "U", "NORAD_CAT_ID": 30719, "ELEMENT_SET_NO": 999, "REV_AT_EPOCH": 97305, "BSTAR": 0.0051776885, "MEAN_MOTION_DOT": 0.00024194, "MEAN_MOTION_DDOT": 0}, "tle": {"line1": "1 30719U 99025ASD 25336.88620834  .00024194  00000+0  51777-2 0  9991", "line2": "2 30719  98.8885 117.9603 0011838 219.0839 140.9504 14.58676315973051"}}, "geometry": {"type": "Point", "coordinates": [-31.941429546921096, 72.13665108703768]}}, {"type": "Feature", "properties": {"norad_id": 30720, "name": "FENGYUN 1C DEB", "group": "fengyun-1c-debris", "lat": -6.234624407677842, "lon": 152.02876660523208, "alt_km": 775.2367162983783, "timestamp": "2025-12-03T20:47:58.502362+00:00", "meta": {"OBJECT_NAME": "FENGYUN 1C DEB", "OBJECT_ID": "1999-025ASE", "EPOCH": "2025-12-01T10:17:46.773312", "MEAN_MOTION": 14.2908859, "ECCENTRICITY": 0.00323724, "INCLINATION": 99.0369, "RA_OF_ASC_NODE": 148.5071, "ARG_OF_PERICENTER": 2.1711, "MEAN_ANOMALY": 57.7271, "EPHEMERIS_TYPE": 0, "CLASSIFICATION_TYPE": "U", "NORAD_CAT_ID": 30720, "ELEMENT_SET_NO": 999, "REV_AT_EPOCH": 97327, "BSTAR": 0.00040425799, "MEAN_MOTION_DOT": 9.83e-06, "MEAN_MOTION_DDOT": 0}, "tle": {"line1": "1 30720U 99025ASE 25335.42901358  .00000983  00000+0  40426-3 0  9995", "line2": "2 30720  99.0369 148.5071 0032372   2.1711  57.7271 14.29088590973278"}}, "geometry": {"type": "Point", "coordinates": [152.02876660523208, -6.234624407677842]}}, {"type": "Feature", "properties": {"norad_id": 30721, "name": "FENGYUN 1C DEB", "group": "fengyun-1c-debris", "lat": -45.52270073644964, "lon": 117.53064620176283, "alt_km": 652.469060194845, "timestamp": "2025-12-03T20:47:58.502373+00:00", "meta": {"OBJECT_NAME": "FENGYUN 1C DEB", "OBJECT_ID": "1999-025ASF", "EPOCH": "2025-12-03T08:11:41.719776", "MEAN_MOTION": 14.71257705, "ECCENTRICITY": 0.0027417, "INCLINATION": 98.7099, "RA_OF_ASC_NODE": 107.9873, "ARG_OF_PERICENTER": 10.0502, "MEAN_ANOMALY": 43.9978, "EPHEMERIS_TYPE": 0, "CLASSIFICATION_TYPE": "U", "NORAD_CAT_ID": 30721, "ELEMENT_SET_NO": 999, "REV_AT_EPOCH": 97704, "BSTAR": 0.0042379, "MEAN_MOTION_DOT": 0.00026344, "MEAN_MOTION_DDOT": 0}, "tle": {"line1": "1 30721U 99025ASF 25337.34145509  .00026344  00000+0  42379-2 0  9994", "line2": "2 30721  98.7099 107.9873 0027417  10.0502  43.9978 14.71257705977047"}}, "geometry": {"type": "Point", "coordinates": [117.53064620176283, -45.52270073644964]}}, {"type": "Feature", "properties": {"norad_id": 30723, "name": "FENGYUN 1C DEB", "group": "fengyun-1c-debris", "lat": 73.98377453365319, "lon": 30.73066101984936, "alt_km": 756.6337757965812, "timestamp": "2025-12-03T20:47:58.502383+00:00", "meta": {"OBJECT_NAME": "FENGYUN 1C DEB", "OBJECT_ID": "1999-025ASH", "EPOCH": "2025-12-03T05:44:17.566080", "MEAN_MOTION": 14.41119066, "ECCENTRICITY": 0.0014746, "INCLINATION": 98.8452, "RA_OF_ASC_NODE": 62.9336, "ARG_OF_PERICENTER": 289.9387, "MEAN_ANOMALY": 132.661, "EPHEMERIS_TYPE": 0, "CLASSIFICATION_TYPE": "U", "NORAD_CAT_ID": 30723, "ELEMENT_SET_NO": 999, "REV_AT_EPOCH": 97234, "BSTAR": 0.003009, "MEAN_MOTION_DOT": 9.673e-05, "MEAN_MOTION_DDOT": 0}, "tle": {"line1": "1 30723U 99025ASH 25337.23909220  .00009673  00000+0  30090-2 0  9995", "line2": "2 30723  98.8452  62.9336 0014746 289.9387 132.6610 14.41119066972347"}}, "geometry": {"type": "Point", "coordinates": [30.73066101984936, 73.98377453365319]}}, {"type": "Feature", "properties": {"norad_id": 30724, "name": "FENGYUN 1C DEB", "group": "fengyun-1c-debris", "lat": 58.276031746865705, "lon": -2.7891919756179844, "alt_km": 827.1089443487735, "timestamp": "2025-12-03T20:47:58.502394+00:00", "meta": {"OBJECT_NAME": "FENGYUN 1C DEB", "OBJECT_ID": "1999-025ASJ", "EPOCH": "2025-12-02T10:57:10.970208", "MEAN_MOTION": 14.37002332, "ECCENTRICITY": 0.00930548, "INCLINATION": 99.3161, "RA_OF_ASC_NODE": 160.2865, "ARG_OF_PERICENTER": 290.0804, "MEAN_ANOMALY": 99.0491, "EPHEMERIS_TYPE": 0, "CLASSIFICATION_TYPE": "U", "NORAD_CAT_ID": 30724, "ELEMENT_SET_NO": 999, "REV_AT_EPOCH": 98305, "BSTAR": 0.00053378755, "MEAN_MOTION_DOT": 1.61e-05, "MEAN_MOTION_DDOT": 0}, "tle": {"line1": "1 30724U 99025ASJ 25336.45637697  .00001610  00000+0  53379-3 0  9994", "line2": "2 30724  99.3161 160.2865 0093054 290.0804  99.0491 14.37002332983051"}}, "geometry": {"type": "Point", "coordinates": [-2.7891919756179844, 58.276031746865705]}}]}